[{"name":"TDRS 13","l1":"1 42915U 17047A   26183.72292596 -.00000089  00000+0  00000+0 0  9998","l2":"2 42915   3.4552   3.0989 0015143 108.9449  57.5559  1.00272517 32501","cat":"geostationary"},{"name":"QZS-3 (MICHIBIKI-3)","l1":"1 42917U 17048A   26183.75028252 -.00000337  00000+0  00000+0 0  9996","l2":"2 42917   0.0764 134.6500 0002230 325.2873 217.9699  1.00268824 32412","cat":"geostationary"},{"name":"AMAZONAS 5","l1":"1 42934U 17053A   26183.21406852 -.00000272  00000+0  00000+0 0  9996","l2":"2 42934   0.0325 325.1790 0001664 101.7064 229.4374  1.00272699 32199","cat":"geostationary"},{"name":"ASIASAT 9","l1":"1 42942U 17057A   26183.89190510  .00000000  00000+0  00000+0 0  9992","l2":"2 42942   0.0453  63.2871 0002299  35.9112 264.9806  1.00263817 32014","cat":"geostationary"},{"name":"INTELSAT 37E (IS-37E)","l1":"1 42950U 17059A   26183.72162595 -.00000130  00000+0  00000+0 0  9992","l2":"2 42950   0.0179  32.7676 0002838  69.6022  60.1704  1.00272937 32224","cat":"geostationary"},{"name":"BSAT-4A","l1":"1 42951U 17059B   26183.75814375 -.00000339  00000+0  00000+0 0  9997","l2":"2 42951   0.0364 339.0771 0003960  99.3553 225.1296  1.00271776 31954","cat":"geostationary"},{"name":"QZS-4 (MICHIBIKI-4)","l1":"1 42965U 17062A   26183.76741337 -.00000316  00000+0  00000+0 0  9999","l2":"2 42965  40.1001 343.2884 0746818 268.3349  83.7779  1.00294869 31964","cat":"geostationary"},{"name":"SES-11 (ECHOSTAR 105)","l1":"1 42967U 17063A   26183.70436984 -.00000079  00000+0  00000+0 0  9991","l2":"2 42967   0.0197 332.7960 0002934 127.7280 328.8454  1.00271625 31879","cat":"geostationary"},{"name":"KOREASAT 5A","l1":"1 42984U 17067A   26183.75883638 -.00000347  00000+0  00000+0 0  9999","l2":"2 42984   0.0249 300.0329 0000903 153.3570 213.7205  1.00269317 31684","cat":"geostationary"},{"name":"ALCOMSAT 1","l1":"1 43039U 17078A   26183.72023928 -.00000176  00000+0  00000+0 0  9998","l2":"2 43039   0.0152  62.6702 0002552  34.5312  58.0257  1.00270572 31458","cat":"geostationary"},{"name":"SBIRS GEO-3 (USA 282)","l1":"1 43162U 18009A   26183.69362310  .00000138  00000+0  00000+0 0  9994","l2":"2 43162   2.1946  12.7989 0002218  83.6795 274.5607  1.00272757 30990","cat":"geostationary"},{"name":"AL YAH 3","l1":"1 43174U 18012A   26183.72119263 -.00000146  00000+0  00000+0 0  9992","l2":"2 43174   1.5896  82.9369 0004072  16.4416  60.8916  1.00271193 31000","cat":"geostationary"},{"name":"SES-14","l1":"1 43175U 18012B   26183.43057132 -.00000268  00000+0  00000+0 0  9992","l2":"2 43175   0.0141  26.1557 0001231  72.8852 288.9348  1.00270777  7171","cat":"geostationary"},{"name":"GOES 17","l1":"1 43226U 18022A   26183.63617994 -.00000172  00000+0  00000+0 0  9994","l2":"2 43226   0.9741  85.4682 0000734  41.6240 293.1097  1.00271770 30575","cat":"geostationary"},{"name":"HISPASAT 30W-6","l1":"1 43228U 18023A   26183.64796667 -.00000205  00000+0  00000+0 0  9990","l2":"2 43228   0.0424  45.4228 0005797  35.4158  43.1160  1.00271750 30562","cat":"geostationary"},{"name":"SUPERBIRD-B3","l1":"1 43271U 18033A   26183.69857750 -.00000081  00000+0  00000+0 0  9997","l2":"2 43271   0.0163  15.3819 0001195  87.7021 231.1513  1.00272258 30216","cat":"geostationary"},{"name":"HYLAS 4","l1":"1 43272U 18033B   26183.64727332  .00000000  00000+0  00000+0 0  9995","l2":"2 43272   0.0207  27.2306 0000967 102.3825 350.5826  1.00269433 30226","cat":"geostationary"},{"name":"IRNSS-1I","l1":"1 43286U 18035A   26179.79558490  .00000066  00000+0  00000+0 0  9992","l2":"2 43286  28.7805  74.0157 0017671 182.6115   1.5908  1.00277388 30197","cat":"geostationary"},{"name":"USA 283","l1":"1 43339U 18036A   26182.46854735  .00000000  00000+0  00000+0 0  9999","l2":"2 43339   0.0077  35.3198 0000064   9.2412 177.7500  1.00269042 25430","cat":"geostationary"},{"name":"COSMOS 2526","l1":"1 43432U 18037A   26183.76307906 -.00000334  00000+0  00000+0 0  9992","l2":"2 43432   0.0339  77.7675 0000645 201.8754  43.8981  1.00268825 30114","cat":"geostationary"},{"name":"APSTAR-6C","l1":"1 43450U 18041A   26183.76418590 -.00000307  00000+0  00000+0 0  9999","l2":"2 43450   0.0402 309.1134 0000225  84.6238 296.1561  1.00269633 29961","cat":"geostationary"},{"name":"BANGABANDHUSAT-1","l1":"1 43463U 18044A   26183.73073593 -.00000352  00000+0  00000+0 0  9993","l2":"2 43463   0.0273  90.2603 0002027  11.8761 200.7936  1.00273413 29862","cat":"geostationary"},{"name":"SES-12","l1":"1 43488U 18049A   26183.68199122 -.00000259  00000+0  00000+0 0  9992","l2":"2 43488   0.0111   7.7612 0000419 259.4490 354.0283  1.00272459 29570","cat":"geostationary"},{"name":"FENGYUN 2H","l1":"1 43491U 18050A   26183.82830072 -.00000119  00000+0  00000+0 0  9995","l2":"2 43491   3.0698  78.8967 0001785 121.3939  98.0538  1.00269442 29599","cat":"geostationary"},{"name":"BEIDOU-2 IGSO-7","l1":"1 43539U 18057A   26182.89122331 -.00000033  00000+0  00000+0 0  9998","l2":"2 43539  55.1981 162.9292 0104946 237.8611 308.6338  1.00246939 29273","cat":"geostationary"},{"name":"TELSTAR 19V","l1":"1 43562U 18059A   26183.28491894 -.00000269  00000+0  00000+0 0  9994","l2":"2 43562   0.0294 140.3912 0003108 341.2792 198.2196  1.00270343 29295","cat":"geostationary"},{"name":"TELKOM 4 (MERAH PUTIH)","l1":"1 43587U 18064A   26183.72689377  .00000000  00000+0  00000+0 0  9993","l2":"2 43587   0.0152  18.7903 0001771 115.4066 156.2458  1.00267339 29030","cat":"geostationary"},{"name":"TELSTAR 18V","l1":"1 43611U 18069A   26183.75253588 -.00000283  00000+0  00000+0 0  9994","l2":"2 43611   0.0241 290.8012 0002135 169.5360 229.3653  1.00271909 28792","cat":"geostationary"},{"name":"AZERSPACE 2 (IS-38)","l1":"1 43632U 18074A   26183.44880176  .00000147  00000+0  00000+0 0  9996","l2":"2 43632   0.0187  35.8650 0001605  70.9304  20.3640  1.00271685 28609","cat":"geostationary"},{"name":"HORIZONS-3E","l1":"1 43633U 18074B   26183.68738308 -.00000020  00000+0  00000+0 0  9993","l2":"2 43633   0.0166 197.9110 0000602  85.7941  53.4880  1.00271230 28491","cat":"geostationary"},{"name":"AEHF-4 (USA 288)","l1":"1 43651U 18079A   26183.56933301 -.00000264  00000+0  00000+0 0  9995","l2":"2 43651   1.4366   5.2231 0059791 355.5325  57.2212  1.00267837 28455","cat":"geostationary"},{"name":"BEIDOU-3 G1","l1":"1 43683U 18085A   26183.75678257 -.00000100  00000+0  00000+0 0  9993","l2":"2 43683   2.9062  96.9625 0008565 353.2948 262.8906  1.00271029 28218","cat":"geostationary"}]